METEOSAT-7              
1 24932U 97049B   17051.52782340  .00000044  00000-0  00000+0 0  9991
2 24932  10.5178  38.2992 0001685 296.9451  63.1093  1.00273483 71292
NOAA 15                 
1 25338U 98030A   17052.56438546  .00000028  00000-0  30768-4 0  9995
2 25338  98.7851  63.2276 0010647 176.8254 183.2995 14.25778078976534
METEOSAT-8 (MSG-1)      
1 27509U 02040B   17052.12342819  .00000134  00000-0  00000+0 0  9991
2 27509   4.6396  58.7910 0000146 237.7360 300.4032  1.00271108 53125
KALPANA-1 (METSAT 1)    
1 27525U 02043A   17050.53668241 -.00000084  00000-0  00000+0 0  9990
2 27525   6.1541  56.0105 0015751 232.6864 127.3159  1.00273127 52904
INSAT-3A                
1 27714U 03013A   17052.52216767 -.00000180  00000-0  00000+0 0  9998
2 27714   0.9112  88.6668 0016338 230.3565 300.5080  0.99801117 50820
NOAA 18                 
1 28654U 05018A   17052.50813863  .00000003  00000-0  27184-4 0  9997
2 28654  99.1912  71.8458 0014830  39.4800 320.7448 14.12325733605933
METEOSAT-9 (MSG-2)      
1 28912U 05049B   17052.24996557  .00000053  00000-0  00000+0 0  9999
2 28912   1.9776  70.5371 0000660  35.0948 145.0670  1.00267745 40951
HIMAWARI-7 (MTSAT-2)    
1 28937U 06004A   17052.23192293 -.00000251  00000-0  00000+0 0  9993
2 28937   0.0243 245.9807 0003862  92.4963  41.3440  1.00273366 40230
FORMOSAT-3 FM6          
1 29047U 06011A   17052.43851212  .00000031  00000-0  28623-4 0  9990
2 29047  71.9786  63.3609 0050796 349.0874  10.9155 14.28562630568233
FORMOSAT-3 FM1          
1 29048U 06011B   17051.93587946  .00000096  00000-0  54317-4 0  9995
2 29048  71.9694 336.6644 0045757 306.2912 124.7634 14.28500280570643
FORMOSAT-3 FM5          
1 29049U 06011C   17052.19242149  .00000070  00000-0  44247-4 0  9991
2 29049  72.0208 140.9432 0035671 342.2936  17.6954 14.28543673566461
FORMOSAT-3 FM3          
1 29050U 06011D   17052.17202652  .00000214  00000-0  55898-4 0  9990
2 29050  72.0155  50.5057 0049908   4.8688 355.2938 14.58454221579657
FORMOSAT-3 FM4          
1 29051U 06011E   17052.42572003  .00000031  00000-0  28320-4 0  9996
2 29051  72.0057  44.7430 0070077 221.9004 137.6758 14.28565783569085
FORMOSAT-3 FM2          
1 29052U 06011F   17052.71719261  .00000094  00000-0  53418-4 0  9993
2 29052  72.0341 114.7700 0042037 305.4049  54.3164 14.28654980567444
GOES 13                 
1 29155U 06018A   17051.78781195 -.00000260  00000-0  00000+0 0  9995
2 29155   0.3333  99.3146 0004049 314.7994 305.9000  1.00274053 39395
METOP-A                 
1 29499U 06044A   17052.22615633  .00000002  00000-0  21067-4 0  9992
2 29499  98.6947 113.7023 0001885 128.1001 309.1963 14.21498016536663
FENGYUN 2D              
1 29640U 06053A   17051.92687045 -.00000369  00000-0  10000-3 0  9993
2 29640   4.2379  64.9842 0004314 329.4119 213.9290  1.00267385 37437
FENGYUN 3A              
1 32958U 08026A   17052.90980243  .00000016  00000-0  26912-4 0  9994
2 32958  98.4218  87.2742 0008480 254.8221 105.2019 14.19650522452986
FENGYUN 2E              
1 33463U 08066A   17052.56220714 -.00000202  00000-0  00000+0 0  9995
2 33463   1.9642  66.1554 0004643 228.1150 145.8657  1.00262070 29977
NOAA 19                 
1 33591U 09005A   17052.56746498  .00000085  00000-0  71422-4 0  9992
2 33591  99.0777  17.8441 0013118 235.4928 124.5005 14.12154889414339
GOES 14                 
1 35491U 09033A   17051.86983660 -.00000103  00000-0  00000+0 0  9991
2 35491   0.0309 128.5484 0006453 114.4964 116.8658  1.00273386 28033
METEOR-M 1              
1 35865U 09049A   17052.71990605  .00000030  00000-0  32100-4 0  9994
2 35865  98.4326  79.5046 0003449 115.2029 244.9507 14.22098277385696
GOES 15                 
1 36411U 10008A   17051.95631520  .00000080  00000-0  00000+0 0  9996
2 36411   0.0512 243.7020 0001053 251.1092 225.1737  1.00276554 25567
COMS 1                  
1 36744U 10032A   17051.89239942 -.00000353  00000-0  00000+0 0  9991
2 36744   0.0117 119.0183 0001094 247.9943 233.4451  1.00272819 24525
FENGYUN 3B              
1 37214U 10059A   17052.85040977  .00000007  00000-0  25937-4 0  9994
2 37214  98.8797  12.0373 0017877 105.6507 254.6638 14.15841415326220
ELEKTRO-L 1 (GOMS 2)    
1 37344U 11001A   17052.19592200 -.00000212  00000-0  00000+0 0  9992
2 37344   2.2032  78.3831 0004545 266.2615 210.5055  1.00237395 22347
SUOMI NPP               
1 37849U 11061A   17052.14882464  .00000002  00000-0  21530-4 0  9999
2 37849  98.7257 352.4964 0001795 100.9751  14.0051 14.19559970275622
FENGYUN 2F              
1 38049U 12002A   17052.58979696 -.00000366  00000-0  00000+0 0  9998
2 38049   1.4801  77.9863 0001534 156.2088 241.5048  1.00284857 18775
METEOSAT-10 (MSG-3)     
1 38552U 12035B   17051.58161976 -.00000015  00000-0  00000+0 0  9997
2 38552   0.7015  45.6926 0000390 192.0789 122.2018  1.00266811 17096
METOP-B                 
1 38771U 12049A   17052.47781635 -.00000002  00000-0  18920-4 0  9995
2 38771  98.6950 114.4961 0001211 150.1204 299.7175 14.21490922229837
FENGYUN 3C              
1 39260U 13052A   17052.67486411 -.00000027  00000-0  76396-5 0  9999
2 39260  98.6612 124.9765 0001051  54.5816 305.5462 14.19639791176991
METEOR-M 2              
1 40069U 14037A   17052.79753138 -.00000042  00000-0  82401-6 0  9990
2 40069  98.6710 109.8311 0005406 176.7797 183.3404 14.20639379136179
HIMAWARI-8              
1 40267U 14060A   17052.18900414 -.00000284  00000-0  00000+0 0  9996
2 40267   0.0483 292.6640 0000992  71.7502 355.5631  1.00273254  8748
FENGYUN 2G              
1 40367U 14090A   17052.58432308 -.00000336  00000-0  00000+0 0  9994
2 40367   0.6722 264.4168 0001297 288.0290 273.9587  1.00261736  7923
METEOSAT-11 (MSG-4)     
1 40732U 15034A   17051.27718106 -.00000037  00000-0  00000+0 0  9995
2 40732   2.0332 247.0724 0001870  61.6817 297.9138  1.00276376  5915
ELEKTRO-L 2             
1 41105U 15074A   17052.61270148 -.00000106  00000-0  00000+0 0  9999
2 41105   0.0810 293.3322 0001473 100.5688  54.4464  1.00273213  4403
HIMAWARI-9              
1 41836U 16064A   17052.18874396 -.00000282  00000-0  00000+0 0  9992
2 41836   0.0428 283.8979 0002048  87.4757 348.6075  1.00283906  1188
GOES 16                 
1 41866U 16071A   17051.82931894 -.00000191  00000-0  00000+0 0  9999
2 41866   0.0470 296.5108 0001835  78.6387 344.8321  1.00271823   981
FENGYUN 4A              
1 41882U 16077A   17052.59074001 -.00000308  00000-0  00000+0 0  9996
2 41882   0.2472 271.7551 0002774 193.6816 358.2749  1.00267033   866
CYGFM05                 
1 41884U 16078A   17052.89472904  .00000699  00000-0  39973-4 0  9994
2 41884  34.9588  19.9690 0016162  32.2714 327.9005 15.13407803 10361
CYGFM04                 
1 41885U 16078B   17052.28442918  .00001887  00000-0  10388-3 0  9998
2 41885  34.9490  23.4824 0014911  25.1662 334.9777 15.13752089 10279
CYGFM02                 
1 41886U 16078C   17052.29117057  .00000670  00000-0  38234-4 0  9993
2 41886  34.9605  23.5798 0015562  25.4250 334.7224 15.13608648 10274
CYGFM01                 
1 41887U 16078D   17052.30497930  .00001212  00000-0  68128-4 0  9995
2 41887  34.9547  23.6649 0016819  27.5583 332.6017 15.13323946 10276
CYGFM08                 
1 41888U 16078E   17051.96780563  .00000980  00000-0  55197-4 0  9997
2 41888  34.9521  25.6377 0016122  23.7061 336.4406 15.13477171 10213
CYGFM06                 
1 41889U 16078F   17052.21223721  .00000643  00000-0  36461-4 0  9994
2 41889  34.9614  23.8800 0014456  23.2278 336.9087 15.13903257 10254
CYGFM07                 
1 41890U 16078G   17052.27477664  .00000754  00000-0  42367-4 0  9994
2 41890  34.9539  23.4161 0013879  23.7827 336.3523 15.13976935 10264
CYGFM03                 
1 41891U 16078H   17052.27117405  .00000639  00000-0  36074-4 0  9999
2 41891  34.9576  23.4020 0013464  23.7249 336.4084 15.14046928 10262
